DMSP 5D-3 F16 (USA 172) 
1 28054U 03048A   26186.27192269  .00000036  00000+0  42243-4 0  9992
2 28054  98.9886 210.2194 0008207  95.3607 319.5401 14.14484707172042
METEOSAT-9 (MSG-2)      
1 28912U 05049B   26185.73031617  .00000133  00000+0  00000+0 0  9995
2 28912   9.3983  53.9918 0002388   0.4955 176.8994  1.00268028  7171
DMSP 5D-3 F17 (USA 191) 
1 29522U 06050A   26186.27177130  .00000073  00000+0  60140-4 0  9996
2 29522  98.7381 192.4719 0010321  11.2618 348.8785 14.14995606 14987
FENGYUN 3A              
1 32958U 08026A   26185.80916295  .00000136  00000+0  84879-4 0  9994
2 32958  98.6885 126.3129 0009874  78.4956 281.7329 14.19575153937905
GOES 14                 
1 35491U 09033A   26185.96109383 -.00000332  00000+0  00000+0 0  9995
2 35491   1.7327  82.8376 0002142  30.2434 287.2365  1.00104012  6764
DMSP 5D-3 F18 (USA 210) 
1 35951U 09057A   26186.17359663  .00000300  00000+0  17846-3 0  9998
2 35951  98.9047 166.9043 0010631 194.1406 165.9471 14.14907301862130
EWS-G2 (GOES 15)        
1 36411U 10008A   26186.16149041  .00000034  00000+0  00000+0 0  9998
2 36411   1.3238  82.6026 0005365  48.3025 273.8354  1.00268352 59811
COMS 1                  
1 36744U 10032A   26185.86445056 -.00000135  00000+0  00000+0 0  9998
2 36744   4.8475  75.1472 0011639  14.1480 147.8491  0.99169370 51260
FENGYUN 3B              
1 37214U 10059A   26186.28019627  .00000407  00000+0  23376-3 0  9994
2 37214  98.9605 232.3708 0022850 133.5703 358.3454 14.14846680809988
SUOMI NPP               
1 37849U 11061A   26186.31446834  .00000103  00000+0  69758-4 0  9998
2 37849  98.7955 127.0669 0000601 291.3113  68.7998 14.19521300761012
METEOSAT-10 (MSG-3)     
1 38552U 12035B   26186.00637748  .00000004  00000+0  00000+0 0  9994
2 38552   4.7109  60.9311 0001435  17.4847 206.9928  1.00269644 51037
METOP-B                 
1 38771U 12049A   26186.20970147  .00000147  00000+0  86865-4 0  9993
2 38771  98.6494 237.3485 0001195 315.2831  44.8250 14.21444613715825
INSAT-3D                
1 39216U 13038B   26183.85162303 -.00000329  00000+0  00000+0 0  9997
2 39216   1.9642  82.3574 0001056  15.1644 259.4386  1.00268722 47238
FENGYUN 3C              
1 39260U 13052A   26186.27754803  .00000088  00000+0  65740-4 0  9991
2 39260  98.4997 159.3225 0014163 335.9947  24.0566 14.15759192661123
METEOR-M 2              
1 40069U 14037A   26186.23580755  .00000228  00000+0  12342-3 0  9998
2 40069  98.5127 161.3360 0005788 357.3175   2.7971 14.21467326621889
HIMAWARI-8              
1 40267U 14060A   26186.18169565 -.00000262  00000+0  00000+0 0  9993
2 40267   0.0177  29.5212 0000963  87.0827  12.6637  1.00270746 42948
FENGYUN 2G              
1 40367U 14090A   26185.98330285 -.00000290  00000+0  00000+0 0  9994
2 40367   5.6811  72.6060 0003651 150.0888 153.7970  1.00265591 42174
METEOSAT-11 (MSG-4)     
1 40732U 15034A   26186.22208699  .00000073  00000+0  00000+0 0  9998
2 40732   3.2455  70.9978 0002247 350.0088 311.4575  1.00268736  7394
ELEKTRO-L 2             
1 41105U 15074A   26185.93224534 -.00000107  00000+0  00000+0 0  9999
2 41105   6.7363  70.3059 0000617 256.6108 277.0927  1.00273703 38686
SENTINEL-3A             
1 41335U 16011A   26186.16981874  .00000160  00000+0  84197-4 0  9991
2 41335  98.6241 253.2946 0001423  93.4210 266.7134 14.26737992540624
INSAT-3DR               
1 41752U 16054A   26186.09234626 -.00000064  00000+0  00000+0 0  9999
2 41752   0.0440  89.0648 0010284 182.1354 119.1289  1.00272315 35991
HIMAWARI-9              
1 41836U 16064A   26186.18169565 -.00000261  00000+0  00000+0 0  9991
2 41836   0.0208 278.6772 0001335 226.6727 343.9982  1.00273443 35399
GOES 16                 
1 41866U 16071A   26186.12824920 -.00000078  00000+0  00000+0 0  9995
2 41866   0.3821  85.6748 0000505  50.8917  88.0478  1.00271840 35285
FENGYUN 4A              
1 41882U 16077A   26186.24470711 -.00000344  00000+0  00000+0 0  9993
2 41882   2.3656  80.0895 0008006 157.9112 257.1046  1.00274475 35112
CYGFM05                 
1 41884U 16078A   26186.19583796  .00037278  00000+0  48825-3 0  9994
2 41884  34.9561 141.2684 0007807 305.7927  54.2071 15.57490437531560
CYGFM04                 
1 41885U 16078B   26186.17310821  .00048320  00000+0  51978-3 0  9993
2 41885  34.9320 108.1857 0006084 341.3726  18.6777 15.62590934531811
CYGFM02                 
1 41886U 16078C   26186.20216586  .00057140  00000+0  54085-3 0  9993
2 41886  34.9401 101.9852 0006919 345.4932  14.5595 15.65774539531999
CYGFM01                 
1 41887U 16078D   26186.17654541  .00037940  00000+0  48387-3 0  9991
2 41887  34.9393 142.3052 0007714 300.2020  59.7940 15.58193264531517
CYGFM08                 
1 41888U 16078E   26186.16847826  .00045263  00000+0  51772-3 0  9990
2 41888  34.9427 121.4538 0008191 330.6791  29.3474 15.61006663531789
CYGFM07                 
1 41890U 16078G   26186.19042992  .00044677  00000+0  50921-3 0  9990
2 41890  34.9443 109.6333 0006444 342.6067  17.4437 15.61116716531811
CYGFM03                 
1 41891U 16078H   26186.16153675  .00045227  00000+0  51571-3 0  9993
2 41891  34.9398 111.7575 0006437 328.9182  31.1162 15.61102634531788
